[
    {
        "CCSDS_OMM_VERS": "3.0",
        "COMMENT": "GENERATED VIA SPACE-TRACK.ORG API",
        "CREATION_DATE": "2025-04-14T03:05:54",
        "ORIGINATOR": "18 SPCS",
        "OBJECT_NAME": "BEIDOU 3M24",
        "OBJECT_ID": "2019-061B",
        "CENTER_NAME": "EARTH",
        "REF_FRAME": "TEME",
        "TIME_SYSTEM": "UTC",
        "MEAN_ELEMENT_THEORY": "SGP4",
        "EPOCH": "2025-04-13T23:23:34.760832",
        "MEAN_MOTION": "1.86229396",
        "ECCENTRICITY": "0.00045330",
        "INCLINATION": "54.4121",
        "RA_OF_ASC_NODE": "197.1729",
        "ARG_OF_PERICENTER": "348.8876",
        "MEAN_ANOMALY": "122.4793",
        "EPHEMERIS_TYPE": "0",
        "CLASSIFICATION_TYPE": "U",
        "NORAD_CAT_ID": "44543",
        "ELEMENT_SET_NO": "999",
        "REV_AT_EPOCH": "3780",
        "BSTAR": "0.00000000000000",
        "MEAN_MOTION_DOT": "0.00000020",
        "MEAN_MOTION_DDOT": "0.0000000000000",
        "SEMIMAJOR_AXIS": "27906.349",
        "PERIOD": "773.240",
        "APOAPSIS": "21540.864",
        "PERIAPSIS": "21515.564",
        "OBJECT_TYPE": "PAYLOAD",
        "RCS_SIZE": "LARGE",
        "COUNTRY_CODE": "PRC",
        "LAUNCH_DATE": "2019-09-22",
        "SITE": "XSC",
        "DECAY_DATE": null,
        "FILE": "4701263",
        "GP_ID": "285539683",
        "TLE_LINE0": "0 BEIDOU 3M24",
        "TLE_LINE1": "1 44543U 19061B   25103.97470788  .00000020  00000-0  00000-0 0  9990",
        "TLE_LINE2": "2 44543  54.4121 197.1729 0004533 348.8876 122.4793  1.86229396 37806"
    }
]